EXCITE                  
1 43819U 18099BP  26068.69809098  .00002813  00000+0  19631-3 0  9999
2 43819  97.4107 111.3606 0017626 337.4818  22.5634 15.06036758396774
STARLINK-4670           
1 53744U 22107AW  26068.85401260  .00001169  00000+0  91512-4 0  9991
2 53744  53.2171 263.0068 0001235  86.2844 273.8290 15.08847987194622
